{
    "links": {
        "self": "http://www.neowsapp.com/rest/v1/neo/3591750?api_key=iIulBulltgU6a56xZRHN4H3l9WmuAYTsLGpBGhQ2"
    },
    "id": "3591750",
    "neo_reference_id": "3591750",
    "name": "(2011 YZ28)",
    "designation": "2011 YZ28",
    "nasa_jpl_url": "http://ssd.jpl.nasa.gov/sbdb.cgi?sstr=3591750",
    "absolute_magnitude_h": 22.5,
    "estimated_diameter": {
        "kilometers": {
            "estimated_diameter_min": 0.0840533402,
            "estimated_diameter_max": 0.1879489824
        },
        "meters": {
            "estimated_diameter_min": 84.0533402073,
            "estimated_diameter_max": 187.9489824394
        },
        "miles": {
            "estimated_diameter_min": 0.0522283081,
            "estimated_diameter_max": 0.1167860472
        },
        "feet": {
            "estimated_diameter_min": 275.7655606856,
            "estimated_diameter_max": 616.6305395464
        }
    },
    "is_potentially_hazardous_asteroid": false,
    "close_approach_data": [
        {
            "close_approach_date": "2011-12-23",
            "close_approach_date_full": "2011-Dec-23 09:53",
            "epoch_date_close_approach": 1324633980000,
            "relative_velocity": {
                "kilometers_per_second": "5.8473495824",
                "kilometers_per_hour": "21050.4584964732",
                "miles_per_hour": "13079.9362807669"
            },
            "miss_distance": {
                "astronomical": "0.2202642825",
                "lunar": "85.6828058925",
                "kilometers": "32951067.499078275",
                "miles": "20474843.912799195"
            },
            "orbiting_body": "Earth"
        }
    ],
    "orbital_data": {
        "orbit_id": "10",
        "orbit_determination_date": "2017-04-06 08:51:39",
        "first_observation_date": "2011-12-29",
        "last_observation_date": "2012-02-01",
        "data_arc_in_days": 34,
        "observations_used": 34,
        "orbit_uncertainty": "7",
        "minimum_orbit_intersection": ".214842",
        "jupiter_tisserand_invariant": "3.459",
        "epoch_osculation": "2459000.5",
        "eccentricity": ".4746357419463495",
        "semi_major_axis": "2.241988503327995",
        "inclination": "9.960007119881711",
        "ascending_node_longitude": "295.1245680206978",
        "orbital_period": "1226.163823796458",
        "perihelion_distance": "1.177860626615727",
        "perihelion_argument": "145.375423296868",
        "aphelion_distance": "3.306116380040264",
        "perihelion_time": "2459579.255851989774",
        "mean_anomaly": "190.0780836354989",
        "mean_motion": ".2935986146495215",
        "equinox": "J2000",
        "orbit_class": {
            "orbit_class_type": "AMO",
            "orbit_class_description": "Near-Earth asteroid orbits similar to that of 1221 Amor",
            "orbit_class_range": "1.017 AU < q (perihelion) < 1.3 AU"
        }
    },
    "is_sentry_object": false
}